{"type":"FeatureCollection","features":[{"type":"Feature","geometry":{"type":"MultiPolygon","coordinates":[[[[-73.608,-7.202],[-73.608,-7.202]]]]},"properties":{"sigla":"AC","name":"Acre"}},{"type":"Feature","geometry":{"type":"MultiPolygon","coordinates":[[[[-35.465,-8.825],[-35.465,-8.825]],[[-35.291,-9.148],[-35.291,-9.148]]]]},"properties":{"sigla":"AL","name":"Alagoas"}},{"type":"Feature","geometry":{"type":"MultiPolygon","coordinates":[[[[-67.326,2.03],[-67.326,2.03]]]]},"properties":{"sigla":"AM","name":"Amazonas"}},{"type":"Feature","geometry":{"type":"MultiPolygon","coordinates":[[[[-51.182,4.009],[-51.182,4.009]]]]},"properties":{"sigla":"AP","name":"Amap\u00e1"}},{"type":"Feature","geometry":{"type":"MultiPolygon","coordinates":[[[[-39.288,-8.563],[-39.288,-8.563]],[[-39.576,-18.088],[-39.576,-18.088]]]]},"properties":{"sigla":"BA","name":"Bahia"}},{"type":"Feature","geometry":{"type":"MultiPolygon","coordinates":[[[[-40.018,-2.837],[-40.018,-2.837]]],[[[-40.025,-2.834],[-40.025,-2.834]]]]},"properties":{"sigla":"CE","name":"Cear\u00e1"}},{"type":"Feature","geometry":{"type":"MultiPolygon","coordinates":[[[[-40.724,-20.842],[-40.724,-20.842]],[[-40.527,-20.655],[-40.527,-20.655]],[[-40.536,-20.685],[-40.536,-20.685]]],[[[-40.475,-20.661],[-40.475,-20.661]]],[[[-40.724,-20.847],[-40.724,-20.847]]]]},"properties":{"sigla":"ES","name":"Esp\u00edrito Santo"}},{"type":"Feature","geometry":{"type":"MultiPolygon","coordinates":[[[[-50.158,-12.412],[-50.158,-12.412]]]]},"properties":{"sigla":"GO","name":"Goi\u00e1s"}},{"type":"Feature","geometry":{"type":"MultiPolygon","coordinates":[[[[-47.031,-8.985],[-47.031,-8.985]],[[-44.813,-1.802],[-44.813,-1.802]],[[-44.569,-1.92],[-44.569,-1.92]],[[-45.747,-1.372],[-45.747,-1.372]],[[-45.888,-1.18],[-45.888,-1.18]],[[-45.822,-1.311],[-45.822,-1.311]],[[-44.693,-1.816],[-44.693,-1.816]],[[-45.39,-1.69],[-45.39,-1.69]],[[-44.801,-1.626],[-44.801,-1.626]],[[-45.128,-1.544],[-45.128,-1.544]],[[-45.823,-1.249],[-45.823,-1.249]],[[-45.576,-1.336],[-45.576,-1.336]],[[-45.8,-1.332],[-45.8,-1.332]],[[-44.834,-1.823],[-44.834,-1.823]],[[-45.369,-1.436],[-45.369,-1.436]],[[-45.905,-1.24],[-45.905,-1.24]],[[-45.595,-1.339],[-45.595,-1.339]],[[-45.392,-1.564],[-45.392,-1.564]]],[[[-44.971,-1.344],[-44.971,-1.344]],[[-44.924,-1.339],[-44.924,-1.339]],[[-44.909,-1.325],[-44.909,-1.325]]],[[[-45.678,-1.3],[-45.678,-1.3]],[[-45.659,-1.297],[-45.659,-1.297]]],[[[-44.802,-1.529],[-44.802,-1.529]]],[[[-44.774,-1.527],[-44.774,-1.527]]],[[[-45.685,-1.196],[-45.685,-1.196]]],[[[-45.542,-1.195],[-45.542,-1.195]]],[[[-44.617,-1.791],[-44.617,-1.791]]],[[[-44.729,-1.562],[-44.729,-1.562]]],[[[-45.798,-1.127],[-45.798,-1.127]]],[[[-45.794,-1.188],[-45.794,-1.188]]],[[[-45.558,-1.329],[-45.558,-1.329]]],[[[-45.09,-1.419],[-45.09,-1.419]]],[[[-45.097,-1.468],[-45.097,-1.468]]],[[[-45.036,-1.39],[-45.036,-1.39]]],[[[-44.749,-1.692],[-44.749,-1.692]]],[[[-45.685,-1.297],[-45.685,-1.297]]],[[[-44.468,-2.076],[-44.468,-2.076]]],[[[-44.48,-2.106],[-44.48,-2.106]]],[[[-45.398,-1.395],[-45.398,-1.395]]],[[[-45.072,-1.446],[-45.072,-1.446]]],[[[-44.723,-1.662],[-44.723,-1.662]]],[[[-44.445,-2.025],[-44.445,-2.025]]],[[[-44.623,-1.812],[-44.623,-1.812]]],[[[-45.089,-1.432],[-45.089,-1.432]]],[[[-45.515,-1.406],[-45.515,-1.406]]],[[[-45.048,-1.327],[-45.048,-1.327]]],[[[-45.791,-1.247],[-45.791,-1.247]]],[[[-45.002,-1.401],[-45.002,-1.401]]],[[[-44.614,-1.83],[-44.614,-1.83]]],[[[-45.626,-1.319],[-45.626,-1.319]]],[[[-44.831,-1.56],[-44.831,-1.56]]],[[[-45.562,-1.261],[-45.562,-1.261]]],[[[-42.75,-2.544],[-42.75,-2.544]]],[[[-44.009,-2.4],[-44.009,-2.4]]],[[[-44.611,-1.784],[-44.611,-1.784]]],[[[-45.64,-1.311],[-45.64,-1.311]]],[[[-45.654,-1.361],[-45.654,-1.361]]],[[[-45.642,-1.247],[-45.642,-1.247]]],[[[-44.016,-2.399],[-44.016,-2.399]]],[[[-45.139,-1.469],[-45.139,-1.469]]],[[[-44.776,-1.569],[-44.776,-1.569]]],[[[-44.876,-1.34],[-44.876,-1.34]]],[[[-45.041,-1.393],[-45.041,-1.393]]],[[[-45.136,-1.489],[-45.136,-1.489]]],[[[-44.458,-2.134],[-44.458,-2.134]]],[[[-45.816,-1.259],[-45.816,-1.259]]],[[[-47.031,-8.98],[-47.031,-8.98]]],[[[-45.108,-1.4],[-45.108,-1.4]]],[[[-45.111,-1.391],[-45.111,-1.391]]],[[[-45.559,-1.26],[-45.559,-1.26]]],[[[-44.757,-1.593],[-44.757,-1.593]]],[[[-45.764,-1.188],[-45.764,-1.188]]]]},"properties":{"sigla":"MA","name":"Maranh\u00e3o"}},{"type":"Feature","geometry":{"type":"MultiPolygon","coordinates":[[[[-44.209,-14.244],[-44.209,-14.244]]]]},"properties":{"sigla":"MG","name":"Minas Gerais"}},{"type":"Feature","geometry":{"type":"MultiPolygon","coordinates":[[[[-53.874,-17.922],[-53.874,-17.922]]],[[[-53.872,-17.916],[-53.872,-17.916]]]]},"properties":{"sigla":"MS","name":"Mato Grosso do Sul"}},{"type":"Feature","geometry":{"type":"MultiPolygon","coordinates":[[[[-60.361,-13.299],[-60.361,-13.299]]],[[[-60.363,-13.296],[-60.363,-13.296]]]]},"properties":{"sigla":"MT","name":"Mato Grosso"}},{"type":"Feature","geometry":{"type":"MultiPolygon","coordinates":[[[[-46.951,-0.734],[-46.951,-0.734]]],[[[-46.401,-0.952],[-46.401,-0.952]]],[[[-46.075,-1.067],[-46.075,-1.067]]],[[[-47.034,-0.695],[-47.034,-0.695]]],[[[-46.375,-0.996],[-46.375,-0.996]]],[[[-47.843,-0.662],[-47.843,-0.662]]],[[[-46.444,-1.01],[-46.444,-1.01]]],[[[-46.327,-0.95],[-46.327,-0.95]]],[[[-46.608,-0.831],[-46.608,-0.831]]],[[[-46.608,-0.859],[-46.608,-0.859]]],[[[-47.035,-0.72],[-47.035,-0.72]]],[[[-46.468,-0.964],[-46.468,-0.964]]],[[[-46.206,-0.941],[-46.206,-0.941]]],[[[-46.954,-0.74],[-46.954,-0.74]]],[[[-47.022,-0.715],[-47.022,-0.715]]],[[[-46.27,-0.933],[-46.27,-0.933]]]]},"properties":{"sigla":"PA","name":"Par\u00e1"}},{"type":"Feature","geometry":{"type":"MultiPolygon","coordinates":[[[[-37.227,-6.035],[-37.227,-6.035]]],[[[-34.862,-6.982],[-34.862,-6.982]]]]},"properties":{"sigla":"PB","name":"Para\u00edba"}},{"type":"Feature","geometry":{"type":"MultiPolygon","coordinates":[[[[-37.177,-7.309],[-37.177,-7.309]]],[[[-32.407,-3.838],[-32.407,-3.838]]],[[[-32.401,-3.837],[-32.401,-3.837]]]]},"properties":{"sigla":"PE","name":"Pernambuco"}},{"type":"Feature","geometry":{"type":"MultiPolygon","coordinates":[[[[-41.739,-2.806],[-41.739,-2.806]]]]},"properties":{"sigla":"PI","name":"Piau\u00ed"}},{"type":"Feature","geometry":{"type":"MultiPolygon","coordinates":[[[[-52.064,-22.534],[-52.064,-22.534]]]]},"properties":{"sigla":"PR","name":"Paran\u00e1"}},{"type":"Feature","geometry":{"type":"MultiPolygon","coordinates":[[[[-44.513,-23.293],[-44.513,-23.293]],[[-43.36,-22.993],[-43.36,-22.993]]],[[[-44.233,-23.089],[-44.233,-23.089]]],[[[-43.828,-23.057],[-43.828,-23.057]]],[[[-43.182,-22.781],[-43.182,-22.781]]],[[[-43.913,-22.939],[-43.913,-22.939]]],[[[-43.238,-22.862],[-43.238,-22.862]]],[[[-43.929,-23.007],[-43.929,-23.007]]],[[[-44.588,-23.206],[-44.588,-23.206]]],[[[-44.046,-23.0],[-44.046,-23.0]]],[[[-44.687,-23.164],[-44.687,-23.164]]],[[[-41.698,-22.41],[-41.698,-22.41]]],[[[-44.513,-23.293],[-44.513,-23.293]]],[[[-43.111,-22.762],[-43.111,-22.762]]],[[[-43.109,-22.758],[-43.109,-22.758]]],[[[-43.177,-22.896],[-43.177,-22.896]]],[[[-44.645,-23.074],[-44.645,-23.074]]],[[[-43.861,-22.952],[-43.861,-22.952]]],[[[-41.687,-22.402],[-41.687,-22.402]]],[[[-44.584,-23.204],[-44.584,-23.204]]],[[[-44.576,-23.186],[-44.576,-23.186]]],[[[-43.91,-22.983],[-43.91,-22.983]]],[[[-44.646,-23.227],[-44.646,-23.227]]],[[[-41.887,-22.777],[-41.887,-22.777]]],[[[-44.129,-23.035],[-44.129,-23.035]]],[[[-43.92,-22.942],[-43.92,-22.942]]],[[[-43.514,-23.065],[-43.514,-23.065]]],[[[-43.148,-23.06],[-43.148,-23.06]]],[[[-44.64,-23.228],[-44.64,-23.228]]],[[[-43.944,-23.023],[-43.944,-23.023]]],[[[-44.693,-23.215],[-44.693,-23.215]]],[[[-43.954,-23.005],[-43.954,-23.005]]],[[[-43.208,-23.041],[-43.208,-23.041]]],[[[-44.672,-23.099],[-44.672,-23.099]]],[[[-43.954,-23.025],[-43.954,-23.025]]],[[[-43.861,-22.947],[-43.861,-22.947]]],[[[-44.675,-23.111],[-44.675,-23.111]]]]},"properties":{"sigla":"RJ","name":"Rio de Janeiro"}},{"type":"Feature","geometry":{"type":"MultiPolygon","coordinates":[[[[-37.152,-4.935],[-37.152,-4.935]]]]},"properties":{"sigla":"RN","name":"Rio Grande do Norte"}},{"type":"Feature","geometry":{"type":"MultiPolygon","coordinates":[[[[-66.459,-9.875],[-66.459,-9.875]]],[[[-66.459,-9.875],[-66.459,-9.875]]]]},"properties":{"sigla":"RO","name":"Rond\u00f4nia"}},{"type":"Feature","geometry":{"type":"MultiPolygon","coordinates":[[[[-59.916,3.146],[-59.916,3.146]]]]},"properties":{"sigla":"RR","name":"Roraima"}},{"type":"Feature","geometry":{"type":"MultiPolygon","coordinates":[[[[-52.044,-31.574],[-52.044,-31.574]]],[[[-51.295,-30.75],[-51.295,-30.75]]],[[[-50.098,-29.236],[-50.098,-29.236]]],[[[-51.148,-30.473],[-51.148,-30.473]]],[[[-49.956,-29.067],[-49.956,-29.067]]],[[[-51.295,-30.054],[-51.295,-30.054]]],[[[-52.102,-31.801],[-52.102,-31.801]]],[[[-53.419,-33.13],[-53.419,-33.13]]],[[[-49.969,-29.12],[-49.969,-29.12]]],[[[-51.465,-31.55],[-51.465,-31.55]]],[[[-51.169,-30.264],[-51.169,-30.264]]],[[[-51.105,-30.259],[-51.105,-30.259]]],[[[-52.044,-31.568],[-52.044,-31.568]]],[[[-51.191,-30.235],[-51.191,-30.235]]]]},"properties":{"sigla":"RS","name":"Rio Grande do Sul"}},{"type":"Feature","geometry":{"type":"MultiPolygon","coordinates":[[[[-53.72,-26.56],[-53.72,-26.56]]],[[[-48.41,-27.389],[-48.41,-27.389]]],[[[-48.565,-27.477],[-48.565,-27.477]]]]},"properties":{"sigla":"SC","name":"Santa Catarina"}},{"type":"Feature","geometry":{"type":"MultiPolygon","coordinates":[[[[-37.96,-9.533],[-37.96,-9.533]]]]},"properties":{"sigla":"SE","name":"Sergipe"}},{"type":"Feature","geometry":{"type":"MultiPolygon","coordinates":[[[[-46.138,-23.859],[-46.138,-23.859]]],[[[-45.321,-23.915],[-45.321,-23.915]]],[[[-45.078,-23.535],[-45.078,-23.535]]],[[[-45.14,-23.8],[-45.14,-23.8]]],[[[-45.163,-23.567],[-45.163,-23.567]]],[[[-45.02,-23.759],[-45.02,-23.759]]],[[[-45.779,-23.868],[-45.779,-23.868]]],[[[-45.294,-23.596],[-45.294,-23.596]]],[[[-45.019,-23.754],[-45.019,-23.754]]],[[[-45.726,-23.801],[-45.726,-23.801]]],[[[-45.526,-23.849],[-45.526,-23.849]]],[[[-46.907,-24.39],[-46.907,-24.39]]],[[[-46.909,-24.374],[-46.909,-24.374]]],[[[-45.033,-23.549],[-45.033,-23.549]]],[[[-44.851,-23.399],[-44.851,-23.399]]],[[[-44.949,-23.386],[-44.949,-23.386]]],[[[-46.98,-24.371],[-46.98,-24.371]]],[[[-47.914,-25.167],[-47.914,-25.167]]],[[[-45.229,-23.813],[-45.229,-23.813]]],[[[-45.325,-23.916],[-45.325,-23.916]]],[[[-45.714,-23.79],[-45.714,-23.79]]],[[[-45.277,-23.853],[-45.277,-23.853]]],[[[-45.297,-23.921],[-45.297,-23.921]]],[[[-45.156,-23.831],[-45.156,-23.831]]],[[[-45.672,-23.805],[-45.672,-23.805]]]]},"properties":{"sigla":"SP","name":"S\u00e3o Paulo"}},{"type":"Feature","geometry":{"type":"MultiPolygon","coordinates":[[[[-47.033,-8.982],[-47.033,-8.982]]]]},"properties":{"sigla":"TO","name":"Tocantins"}},{"type":"Feature","geometry":{"type":"MultiPolygon","coordinates":[[[[-47.309,-16.035],[-47.309,-16.035]]]]},"properties":{"sigla":"DF","name":"Distrito Federal"}}]}